ASTRA 1P (SES-24)       
1 60086U 24115A   26087.90507161  .00000100  00000+0  00000+0 0  9994
2 60086   0.0633  15.8343 0003763 303.4629 212.0192  1.00272290  6392
